{
  "type": "FeatureCollection",
  "features": [
    {
      "type": "Feature",
      "properties": {
        "norad_id": 24876,
        "name": "GPS BIIR-2  (PRN 13)",
        "group": "gnss",
        "lat": NaN,
        "lon": NaN,
        "alt_km": NaN,
        "timestamp": "2025-12-01T02:46:59.658114+00:00",
        "meta": {
          "OBJECT_NAME": "GPS BIIR-2  (PRN 13)",
          "OBJECT_ID": "1997-035A",
          "EPOCH": "2025-11-30T06:26:10.116096",
          "MEAN_MOTION": 2.00563468,
          "ECCENTRICITY": 0.0096627,
          "INCLINATION": 55.8891,
          "RA_OF_ASC_NODE": 106.3568,
          "ARG_OF_PERICENTER": 57.0227,
          "MEAN_ANOMALY": 303.8862,
          "EPHEMERIS_TYPE": 0,
          "CLASSIFICATION_TYPE": "U",
          "NORAD_CAT_ID": 24876,
          "ELEMENT_SET_NO": 999,
          "REV_AT_EPOCH": 20796,
          "BSTAR": 0,
          "MEAN_MOTION_DOT": 5.3e-07,
          "MEAN_MOTION_DDOT": 0
        }
      },
      "geometry": {
        "type": "Point",
        "coordinates": [
          NaN,
          NaN
        ]
      }
    },
    {
      "type": "Feature",
      "properties": {
        "norad_id": 26360,
        "name": "GPS BIIR-4  (PRN 20)",
        "group": "gnss",
        "lat": NaN,
        "lon": NaN,
        "alt_km": NaN,
        "timestamp": "2025-12-01T02:46:59.658157+00:00",
        "meta": {
          "OBJECT_NAME": "GPS BIIR-4  (PRN 20)",
          "OBJECT_ID": "2000-025A",
          "EPOCH": "2025-11-30T17:22:55.601760",
          "MEAN_MOTION": 2.00568582,
          "ECCENTRICITY": 0.0038757,
          "INCLINATION": 55.0381,
          "RA_OF_ASC_NODE": 27.3241,
          "ARG_OF_PERICENTER": 240.7993,
          "MEAN_ANOMALY": 181.1777,
          "EPHEMERIS_TYPE": 0,
          "CLASSIFICATION_TYPE": "U",
          "NORAD_CAT_ID": 26360,
          "ELEMENT_SET_NO": 999,
          "REV_AT_EPOCH": 18729,
          "BSTAR": 0,
          "MEAN_MOTION_DOT": -6.8e-07,
          "MEAN_MOTION_DDOT": 0
        }
      },
      "geometry": {
        "type": "Point",
        "coordinates": [
          NaN,
          NaN
        ]
      }
    },
    {
      "type": "Feature",
      "properties": {
        "norad_id": 26407,
        "name": "GPS BIIR-5  (PRN 22)",
        "group": "gnss",
        "lat": NaN,
        "lon": NaN,
        "alt_km": NaN,
        "timestamp": "2025-12-01T02:46:59.658182+00:00",
        "meta": {
          "OBJECT_NAME": "GPS BIIR-5  (PRN 22)",
          "OBJECT_ID": "2000-040A",
          "EPOCH": "2025-11-30T20:53:27.058848",
          "MEAN_MOTION": 2.0056769,
          "ECCENTRICITY": 0.0126668,
          "INCLINATION": 54.8938,
          "RA_OF_ASC_NODE": 223.0411,
          "ARG_OF_PERICENTER": 301.5854,
          "MEAN_ANOMALY": 65.5277,
          "EPHEMERIS_TYPE": 0,
          "CLASSIFICATION_TYPE": "U",
          "NORAD_CAT_ID": 26407,
          "ELEMENT_SET_NO": 999,
          "REV_AT_EPOCH": 18597,
          "BSTAR": 0,
          "MEAN_MOTION_DOT": 4.3e-07,
          "MEAN_MOTION_DDOT": 0
        }
      },
      "geometry": {
        "type": "Point",
        "coordinates": [
          NaN,
          NaN
        ]
      }
    },
    {
      "type": "Feature",
      "properties": {
        "norad_id": 27663,
        "name": "GPS BIIR-8  (PRN 16)",
        "group": "gnss",
        "lat": NaN,
        "lon": NaN,
        "alt_km": NaN,
        "timestamp": "2025-12-01T02:46:59.658204+00:00",
        "meta": {
          "OBJECT_NAME": "GPS BIIR-8  (PRN 16)",
          "OBJECT_ID": "2003-005A",
          "EPOCH": "2025-11-30T16:30:32.457888",
          "MEAN_MOTION": 2.00571469,
          "ECCENTRICITY": 0.0146957,
          "INCLINATION": 54.9265,
          "RA_OF_ASC_NODE": 222.8577,
          "ARG_OF_PERICENTER": 51.6309,
          "MEAN_ANOMALY": 319.389,
          "EPHEMERIS_TYPE": 0,
          "CLASSIFICATION_TYPE": "U",
          "NORAD_CAT_ID": 27663,
          "ELEMENT_SET_NO": 999,
          "REV_AT_EPOCH": 16733,
          "BSTAR": 0,
          "MEAN_MOTION_DOT": 4.2e-07,
          "MEAN_MOTION_DDOT": 0
        }
      },
      "geometry": {
        "type": "Point",
        "coordinates": [
          NaN,
          NaN
        ]
      }
    },
    {
      "type": "Feature",
      "properties": {
        "norad_id": 28190,
        "name": "GPS BIIR-11 (PRN 19)",
        "group": "gnss",
        "lat": NaN,
        "lon": NaN,
        "alt_km": NaN,
        "timestamp": "2025-12-01T02:46:59.658226+00:00",
        "meta": {
          "OBJECT_NAME": "GPS BIIR-11 (PRN 19)",
          "OBJECT_ID": "2004-009A",
          "EPOCH": "2025-11-26T05:14:39.537024",
          "MEAN_MOTION": 2.00561394,
          "ECCENTRICITY": 0.01080929,
          "INCLINATION": 55.0011,
          "RA_OF_ASC_NODE": 283.885,
          "ARG_OF_PERICENTER": 167.3745,
          "MEAN_ANOMALY": 15.773,
          "EPHEMERIS_TYPE": 0,
          "CLASSIFICATION_TYPE": "U",
          "NORAD_CAT_ID": 28190,
          "ELEMENT_SET_NO": 999,
          "REV_AT_EPOCH": 15887,
          "BSTAR": 0,
          "MEAN_MOTION_DOT": -2.4e-07,
          "MEAN_MOTION_DDOT": 0
        }
      },
      "geometry": {
        "type": "Point",
        "coordinates": [
          NaN,
          NaN
        ]
      }
    },
    {
      "type": "Feature",
      "properties": {
        "norad_id": 28474,
        "name": "GPS BIIR-13 (PRN 02)",
        "group": "gnss",
        "lat": NaN,
        "lon": NaN,
        "alt_km": NaN,
        "timestamp": "2025-12-01T02:46:59.658246+00:00",
        "meta": {
          "OBJECT_NAME": "GPS BIIR-13 (PRN 02)",
          "OBJECT_ID": "2004-045A",
          "EPOCH": "2025-11-30T14:54:45.885024",
          "MEAN_MOTION": 2.00568806,
          "ECCENTRICITY": 0.0170487,
          "INCLINATION": 55.2466,
          "RA_OF_ASC_NODE": 332.8936,
          "ARG_OF_PERICENTER": 308.7243,
          "MEAN_ANOMALY": 233.2493,
          "EPHEMERIS_TYPE": 0,
          "CLASSIFICATION_TYPE": "U",
          "NORAD_CAT_ID": 28474,
          "ELEMENT_SET_NO": 999,
          "REV_AT_EPOCH": 15444,
          "BSTAR": 0,
          "MEAN_MOTION_DOT": -5.2e-07,
          "MEAN_MOTION_DDOT": 0
        }
      },
      "geometry": {
        "type": "Point",
        "coordinates": [
          NaN,
          NaN
        ]
      }
    },
    {
      "type": "Feature",
      "properties": {
        "norad_id": 28874,
        "name": "GPS BIIRM-1 (PRN 17)",
        "group": "gnss",
        "lat": NaN,
        "lon": NaN,
        "alt_km": NaN,
        "timestamp": "2025-12-01T02:46:59.658265+00:00",
        "meta": {
          "OBJECT_NAME": "GPS BIIRM-1 (PRN 17)",
          "OBJECT_ID": "2005-038A",
          "EPOCH": "2025-11-30T16:16:45.057792",
          "MEAN_MOTION": 2.00548966,
          "ECCENTRICITY": 0.0132878,
          "INCLINATION": 55.0429,
          "RA_OF_ASC_NODE": 281.1867,
          "ARG_OF_PERICENTER": 293.3584,
          "MEAN_ANOMALY": 248.5646,
          "EPHEMERIS_TYPE": 0,
          "CLASSIFICATION_TYPE": "U",
          "NORAD_CAT_ID": 28874,
          "ELEMENT_SET_NO": 999,
          "REV_AT_EPOCH": 14785,
          "BSTAR": 0,
          "MEAN_MOTION_DOT": -4.1e-07,
          "MEAN_MOTION_DDOT": 0
        }
      },
      "geometry": {
        "type": "Point",
        "coordinates": [
          NaN,
          NaN
        ]
      }
    },
    {
      "type": "Feature",
      "properties": {
        "norad_id": 28899,
        "name": "INMARSAT 4-F2 (SOUTHPAN/PRN 122)",
        "group": "gnss",
        "lat": NaN,
        "lon": NaN,
        "alt_km": NaN,
        "timestamp": "2025-12-01T02:46:59.658286+00:00",
        "meta": {
          "OBJECT_NAME": "INMARSAT 4-F2 (SOUTHPAN/PRN 122)",
          "OBJECT_ID": "2005-044A",
          "EPOCH": "2025-11-30T14:31:33.105792",
          "MEAN_MOTION": 1.00271038,
          "ECCENTRICITY": 0.0003377,
          "INCLINATION": 4.835,
          "RA_OF_ASC_NODE": 43.6494,
          "ARG_OF_PERICENTER": 206.1893,
          "MEAN_ANOMALY": 181.2859,
          "EPHEMERIS_TYPE": 0,
          "CLASSIFICATION_TYPE": "U",
          "NORAD_CAT_ID": 28899,
          "ELEMENT_SET_NO": 999,
          "REV_AT_EPOCH": 7353,
          "BSTAR": 0,
          "MEAN_MOTION_DOT": -2.4e-06,
          "MEAN_MOTION_DDOT": 0
        }
      },
      "geometry": {
        "type": "Point",
        "coordinates": [
          NaN,
          NaN
        ]
      }
    }
  ]
}